satname,norad_id,inclination_deg,eccentricity,mean_motion_rev_per_day,perigee_km,apogee_km,l1,l2
STARLINK-1234,45190,53.0393,0.0004687,15.73599215,345.4674033854244,351.773065617047,1 45190U 20012N   26152.51333009  .00072631  00000+0  50835-3 0  9996,2 45190  53.0393 271.8029 0004687 233.1788 126.8800 15.73599215349031
STARLINK-1269,45197,53.1568,0.0002308,15.34303365,461.4115426456565,464.5694070880554,1 45197U 20012V   26152.01755362  .00048050  00000+0  14285-2 0  9994,2 45197  53.1568  11.7468 0002308 115.0552 245.0690 15.34303365347682
STARLINK-1154,45198,53.0424,2.79e-05,15.6313779,378.4112515555971,378.788277467057,1 45198U 20012W   26151.94674470  .00055116  00000+0  59470-3 0  9993,2 45198  53.0424 328.4826 0000279 298.7115  61.3870 15.63137790348238
STARLINK-1199,45201,53.1564,0.000159,15.34238876,462.0944068516692,464.2699463498284,1 45201U 20012Z   26151.98850791  .00048219  00000+0  14364-2 0  9992,2 45201  53.1564 356.1503 0001590 177.2965 182.8046 15.34238876347924
STARLINK-1209,45206,53.0389,0.0007582,15.65134126,367.7344419091578,377.9716432096948,1 45206U 20012AE  26152.55672092  .00046650  00000+0  46603-3 0  9996,2 45206  53.0389 285.8071 0007582 213.3371 146.7167 15.65134126347998
STARLINK-1231,45212,53.0412,0.0003547,15.27327739,481.37062951661756,486.2384908594149,1 45212U 20012AL  26151.87543083  .00041332  00000+0  15281-2 0  9993,2 45212  53.0412 351.7089 0003547  68.0114 292.1261 15.27327739347916
STARLINK-1271,45217,53.157,0.0001461,15.34471974,461.48991116661364,463.4887421792673,1 45217U 20012AR  26151.98685900  .00055625  00000+0  16415-2 0  9995,2 45217  53.1570 356.2881 0001461 190.1183 169.9791 15.34471974347922
STARLINK-1191,45222,53.1556,0.000302,15.38474401,448.55771115447897,452.6822803799223,1 45222U 20012AW  26152.50438075  .00062695  00000+0  16240-2 0  9990,2 45222  53.1556 327.0527 0003020 179.9826 180.1179 15.38474401348385
STARLINK-1212,45223,53.0405,0.000209,15.66419378,367.7495467321087,370.56991676597863,1 45223U 20012AX  26152.51611895  .00054383  00000+0  51537-3 0  9999,2 45223  53.0405 301.6737 0002090 114.7772 245.3461 15.66419378348721
STARLINK-1215,45225,53.1568,0.0001612,15.34588632,461.03999050272796,463.24529665981754,1 45225U 20012AZ  26152.50758825  .00046941  00000+0  13835-2 0  9994,2 45225  53.1568 328.1263 0001612 224.8531 135.2342 15.34588632348323
STARLINK-1221,45227,53.0643,0.0001977,15.44615681,431.16108716723556,433.85401602293587,1 45227U 20012BB  26152.51336014  .00016197  00000+0  35080-3 0  9996,2 45227  53.0643 231.5435 0001977 291.8313  68.2482 15.44615681349655
STARLINK-1222,45228,53.0545,0.0001452,15.54617645,402.2796564894097,404.24897543156385,1 45228U 20012BC  26151.68855713  .00041799  00000+0  62489-3 0  9995,2 45228  53.0545 303.3458 0001452  11.3309 348.7734 15.54617645348511
STARLINK-1226,45229,53.1564,0.0002382,15.43297903,434.7607244193614,438.0071621967536,1 45229U 20012BD  26152.44313865  .00068529  00000+0  15114-2 0  9990,2 45229  53.1564 324.8734 0002382 220.2121 139.8709 15.43297903348302
STARLINK-1227,45230,53.1541,0.0002549,15.43314541,434.5979574777957,438.07197528625784,1 45230U 20012BE  26151.80588472  .00070145  00000+0  15456-2 0  9995,2 45230  53.1541 328.0068 0002549 203.6343 156.4546 15.43314541348325
STARLINK-1246,45235,53.1566,0.0002808,15.34381954,460.83595424708165,464.6778002485444,1 45235U 20012BK  26152.02401768  .00053812  00000+0  15932-2 0  9998,2 45235  53.1566  11.3446 0002808 167.1564 192.9510 15.34381954347749
STARLINK-1270,45237,53.0409,0.0001488,15.61113878,383.43209681741064,385.4446392469372,1 45237U 20012BM  26152.44648706  .00110626  00000+0  12761-2 0  9995,2 45237  53.0409 303.1711 0001488 240.1691 119.9174 15.61113878348697
STARLINK-1279,45360,53.0376,0.0007852,15.73630844,343.24831943932895,353.8118774507275,1 45360U 20019A   26151.98285978  .00083764  00000+0  58341-3 0  9992,2 45360  53.0376  49.2203 0007852  91.5329 268.6588 15.73630844343728
STARLINK-1301,45361,53.0369,0.0005408,15.75981312,338.2060295230949,345.4743568552476,1 45361U 20019B   26151.97078152  .00091429  00000+0  57474-3 0  9999,2 45361  53.0369  52.0322 0005408 114.9532 245.2050 15.75981312343698
STARLINK-1262,45366,53.152,0.0003879,15.33348252,463.1762683892466,468.485818797466,1 45366U 20019G   26152.12098303  .00050213  00000+0  15373-2 0  9999,2 45366  53.1520 137.3006 0003879  49.5524 310.5816 15.33348252342535
STARLINK-1273,45367,53.0442,0.0005586,15.56355863,394.42889481314523,401.99943433420594,1 45367U 20019H   26152.27148160  .00085841  00000+0  11896-2 0  9994,2 45367  53.0442 113.4821 0005586  40.4264 319.7161 15.56355863342867
STARLINK-1277,45369,53.0415,0.0005532,15.63130406,374.88320450433366,382.3588816031679,1 45369U 20019K   26152.58335648  .00092292  00000+0  98714-3 0  9992,2 45369  53.0415 106.3132 0005532  32.6370  25.0951 15.63130406  5791
STARLINK-1281,45370,53.1565,0.0005375,15.34256312,459.4531633564029,466.8075257517994,1 45370U 20019L   26152.33221405  .00046297  00000+0  13787-2 0  9992,2 45370  53.1565 135.9861 0005375  47.9767 312.1693 15.34256312342577
STARLINK-1300,45374,53.1578,0.0004699,15.34698911,458.6008644984695,465.0290513485252,1 45374U 20019Q   26152.34627151  .00051134  00000+0  14996-2 0  9994,2 45374  53.1578 135.8443 0004699  62.9343 297.2139 15.34698911342578
STARLINK-1302,45375,53.0459,0.0005494,15.66608514,364.90998879452127,372.32332171091275,1 45375U 20019R   26152.26263537  .00052512  00000+0  49389-3 0  9996,2 45375  53.0459 104.1132 0005494  49.4475 310.7018 15.66608514342998
STARLINK-1304,45376,53.0422,0.0005739,15.61963183,378.10711325770353,385.86638329597554,1 45376U 20019S   26152.24439608  .00068447  00000+0  76987-3 0  9997,2 45376  53.0422 105.2946 0005739  59.6281 300.5299 15.61963183342971
STARLINK-1305,45377,53.0385,0.0001761,15.70565375,356.0939986366311,358.46621254122056,1 45377U 20019T   26152.10752749  .00068602  00000+0  54659-3 0  9992,2 45377  53.0385  84.9354 0001761 167.5645 192.5415 15.70565375343252
STARLINK-1319,45379,53.0382,0.0003988,15.76219356,338.48394224592266,343.843256403944,1 45379U 20019V   26152.48069554  .00086036  00000+0  53600-3 0  9996,2 45379  53.0382  75.0613 0003988  71.9306 288.2147 15.76219356343420
STARLINK-1266,45383,53.0455,0.0001611,15.6514101,371.7456658692181,373.92082848285827,1 45383U 20019Z   26152.21087223  .00047476  00000+0  47459-3 0  9995,2 45383  53.0455  90.5689 0001611 122.9583 237.1587 15.65141010343178
STARLINK-1267,45384,53.0433,0.0007149,15.64657101,369.3978483777155,379.0523757255269,1 45384U 20019AA  26152.36814641  .00054533  00000+0  55380-3 0  9998,2 45384  53.0433  81.0047 0007149  87.1875 272.9957 15.64657101343323
STARLINK-1272,45386,53.0403,0.0007831,15.68886813,356.8051598349102,367.3616930668177,1 45386U 20019AC  26152.15222326  .00062695  00000+0  53549-3 0  9993,2 45386  53.0403  61.0495 0007831  72.9009 287.2864 15.68886813343588
STARLINK-1274,45387,53.0208,0.0008393,15.60569582,380.3335630537331,391.6878614034795,1 45387U 20019AD  26152.58335648  .00147616  00000+0  17264-2 0  9993,2 45387  53.0208  57.7778 0008393 110.1364 197.0539 15.60569582  5946
STARLINK-1280,45388,53.0375,0.0004792,15.76878564,336.0718256201999,342.5098084400415,1 45388U 20019AE  26151.98698322  .00095430  00000+0  57632-3 0  9998,2 45388  53.0375  69.9298 0004792  85.4669 274.6897 15.76878564343433
STARLINK-1283,45389,53.0406,0.0003866,15.7014388,355.8810596250214,361.08981609397415,1 45389U 20019AF  26152.17595451  .00062383  00000+0  50651-3 0  9995,2 45389  53.0406  60.0893 0003866 100.7350 259.4102 15.70143880343600
STARLINK-1284,45390,53.0407,0.0004412,15.69069166,358.58764129320025,364.5347509814719,1 45390U 20019AG  26152.18806286  .00059224  00000+0  50308-3 0  9998,2 45390  53.0407  83.8491 0004412  28.2403 331.8852 15.69069166343262
STARLINK-1297,45395,53.0418,0.000642,15.67456927,361.85205193086585,370.5117574044598,1 45395U 20019AM  26152.45084042  .00058405  00000+0  52972-3 0  9990,2 45395  53.0418  81.5089 0006420  39.0167 321.1310 15.67456927342505
STARLINK-1307,45397,53.0525,0.0002682,15.56061825,397.250144141879,400.8854367914864,1 45397U 20019AP  26152.20048096  .00036371  00000+0  51690-3 0  9998,2 45397  53.0525  88.0793 0002682  75.5008 284.6300 15.56061825343033
STARLINK-1255,45399,53.035,0.000552,15.65014324,369.4708274511913,376.9243008099929,1 45399U 20019AR  26151.95927054  .00052275  00000+0  52403-3 0  9995,2 45399  53.0350  57.5819 0005520  93.0498 267.1148 15.65014324343424
STARLINK-1260,45404,53.1558,0.00056,15.37055561,450.99526232257176,458.6481760880815,1 45404U 20019AW  26152.25724356  .00057115  00000+0  15507-2 0  9997,2 45404  53.1558  99.1802 0005600  63.0231 297.1345 15.37055561342795
STARLINK-1263,45405,53.1562,0.0004392,15.34326346,459.9175709893916,465.9267573592024,1 45405U 20019AX  26152.08534331  .00049688  00000+0  14752-2 0  9998,2 45405  53.1562 101.1122 0004392  74.8115 285.3373 15.34326346342753
STARLINK-1265,45406,53.1568,0.0005137,15.37455326,450.12772708875946,457.1466919116001,1 45406U 20019AY  26152.25129977  .00059843  00000+0  16030-2 0  9999,2 45406  53.1568  99.2148 0005137  55.6631 304.4859 15.37455326342793
STARLINK-1278,45408,53.04,0.0006768,15.6836892,359.00435700342223,368.12992773052974,1 45408U 20019BA  26152.22609866  .00059636  00000+0  52093-3 0  9998,2 45408  53.0400  81.5936 0006768  60.4529 299.7161 15.68368920343025
STARLINK-1296,45412,53.1551,0.0005908,15.37689619,448.9074321698381,456.9790365747722,1 45412U 20019BE  26152.35686157  .00057337  00000+0  15250-2 0  9994,2 45412  53.1551  98.4207 0005908  54.1647 305.9906 15.37689619342812
STARLINK-1309,45414,53.0609,0.0006259,15.67468207,361.92829950155283,370.3707974029039,1 45414U 20019BG  26152.17859394  .00054089  00000+0  49102-3 0  9996,2 45414  53.0609  75.7076 0006259  36.2877 323.8562 15.67468207343083
